{
  "type": "FeatureCollection",
  "features": [
    {
      "type": "Feature",
      "properties": {
        "norad_id": 58647,
        "name": "TIANMU-1 13",
        "group": "weather",
        "lat": -19.973809774309974,
        "lon": -168.41820269272876,
        "alt_km": 493.52585193725736,
        "timestamp": "2025-12-20T18:51:31.361262+00:00",
        "meta_object_name": "TIANMU-1 13",
        "meta_object_id": "2023-205C",
        "meta_epoch": "2025-12-20T13:15:29.127744",
        "meta_mean_motion": 15.24615333,
        "meta_eccentricity": 0.00062844,
        "meta_inclination": 97.3611,
        "meta_ra_of_asc_node": 14.0456,
        "meta_arg_of_pericenter": 232.1844,
        "meta_mean_anomaly": 127.8826,
        "meta_ephemeris_type": 0,
        "meta_classification_type": "U",
        "meta_norad_cat_id": 58647,
        "meta_element_set_no": 999,
        "meta_rev_at_epoch": 11026,
        "meta_bstar": 0.00018384084,
        "meta_mean_motion_dot": 4.466e-05,
        "meta_mean_motion_ddot": 0,
        "tle_line1": "1 58647U 23205C   25354.55242046  .00004466  00000+0  18384-3 0  9995",
        "tle_line2": "2 58647  97.3611  14.0456 0006284 232.1844 127.8826 15.24615333110260"
      },
      "geometry": {
        "type": "Point",
        "coordinates": [
          -168.41820269272876,
          -19.973809774309974
        ]
      }
    },
    {
      "type": "Feature",
      "properties": {
        "norad_id": 58648,
        "name": "TIANMU-1 14",
        "group": "weather",
        "lat": -68.14135223942179,
        "lon": 32.397418447030184,
        "alt_km": 496.37377399050183,
        "timestamp": "2025-12-20T18:51:31.361271+00:00",
        "meta_object_name": "TIANMU-1 14",
        "meta_object_id": "2023-205D",
        "meta_epoch": "2025-12-20T14:26:12.936768",
        "meta_mean_motion": 15.24598812,
        "meta_eccentricity": 0.00070269,
        "meta_inclination": 97.3542,
        "meta_ra_of_asc_node": 13.4354,
        "meta_arg_of_pericenter": 238.2178,
        "meta_mean_anomaly": 121.8376,
        "meta_ephemeris_type": 0,
        "meta_classification_type": "U",
        "meta_norad_cat_id": 58648,
        "meta_element_set_no": 999,
        "meta_rev_at_epoch": 11027,
        "meta_bstar": 0.0001793833,
        "meta_mean_motion_dot": 4.354e-05,
        "meta_mean_motion_ddot": 0,
        "tle_line1": "1 58648U 23205D   25354.60153862  .00004354  00000+0  17938-3 0  9999",
        "tle_line2": "2 58648  97.3542  13.4354 0007026 238.2178 121.8376 15.24598812110273"
      },
      "geometry": {
        "type": "Point",
        "coordinates": [
          32.397418447030184,
          -68.14135223942179
        ]
      }
    },
    {
      "type": "Feature",
      "properties": {
        "norad_id": 58660,
        "name": "TIANMU-1 19",
        "group": "weather",
        "lat": -75.12533583502095,
        "lon": 135.27833295307917,
        "alt_km": 487.888856514317,
        "timestamp": "2025-12-20T18:51:31.361281+00:00",
        "meta_object_name": "TIANMU-1 19",
        "meta_object_id": "2023-208A",
        "meta_epoch": "2025-12-20T12:54:32.025888",
        "meta_mean_motion": 15.27981628,
        "meta_eccentricity": 0.00044763,
        "meta_inclination": 97.4396,
        "meta_ra_of_asc_node": 105.5603,
        "meta_arg_of_pericenter": 218.5905,
        "meta_mean_anomaly": 141.5015,
        "meta_ephemeris_type": 0,
        "meta_classification_type": "U",
        "meta_norad_cat_id": 58660,
        "meta_element_set_no": 999,
        "meta_rev_at_epoch": 11001,
        "meta_bstar": 0.00024723921,
        "meta_mean_motion_dot": 6.676e-05,
        "meta_mean_motion_ddot": 0,
        "tle_line1": "1 58660U 23208A   25354.53787067  .00006676  00000+0  24724-3 0  9998",
        "tle_line2": "2 58660  97.4396 105.5603 0004476 218.5905 141.5015 15.27981628110015"
      },
      "geometry": {
        "type": "Point",
        "coordinates": [
          135.27833295307917,
          -75.12533583502095
        ]
      }
    },
    {
      "type": "Feature",
      "properties": {
        "norad_id": 58661,
        "name": "TIANMU-1 20",
        "group": "weather",
        "lat": 31.19105814194898,
        "lon": 101.72980718995562,
        "alt_km": 480.8606256562189,
        "timestamp": "2025-12-20T18:51:31.361291+00:00",
        "meta_object_name": "TIANMU-1 20",
        "meta_object_id": "2023-208B",
        "meta_epoch": "2025-12-20T14:00:35.481600",
        "meta_mean_motion": 15.2917203,
        "meta_eccentricity": 0.00065683,
        "meta_inclination": 97.4332,
        "meta_ra_of_asc_node": 106.0614,
        "meta_arg_of_pericenter": 232.9584,
        "meta_mean_anomaly": 127.1055,
        "meta_ephemeris_type": 0,
        "meta_classification_type": "U",
        "meta_norad_cat_id": 58661,
        "meta_element_set_no": 999,
        "meta_rev_at_epoch": 11009,
        "meta_bstar": 0.00022569873,
        "meta_mean_motion_dot": 6.317e-05,
        "meta_mean_motion_ddot": 0,
        "tle_line1": "1 58661U 23208B   25354.58374400  .00006317  00000+0  22570-3 0  9996",
        "tle_line2": "2 58661  97.4332 106.0614 0006568 232.9584 127.1055 15.29172030110094"
      },
      "geometry": {
        "type": "Point",
        "coordinates": [
          101.72980718995562,
          31.19105814194898
        ]
      }
    },
    {
      "type": "Feature",
      "properties": {
        "norad_id": 58662,
        "name": "TIANMU-1 21",
        "group": "weather",
        "lat": 69.43041678878846,
        "lon": -51.41874719945113,
        "alt_km": 465.9491433783969,
        "timestamp": "2025-12-20T18:51:31.361302+00:00",
        "meta_object_name": "TIANMU-1 21",
        "meta_object_id": "2023-208C",
        "meta_epoch": "2025-12-20T13:40:46.252128",
        "meta_mean_motion": 15.31706292,
        "meta_eccentricity": 0.00062221,
        "meta_inclination": 97.4381,
        "meta_ra_of_asc_node": 107.9912,
        "meta_arg_of_pericenter": 227.2194,
        "meta_mean_anomaly": 132.8525,
        "meta_ephemeris_type": 0,
        "meta_classification_type": "U",
        "meta_norad_cat_id": 58662,
        "meta_element_set_no": 999,
        "meta_rev_at_epoch": 11019,
        "meta_bstar": 0.00024075055,
        "meta_mean_motion_dot": 7.296e-05,
        "meta_mean_motion_ddot": 0,
        "tle_line1": "1 58662U 23208C   25354.56997977  .00007296  00000+0  24075-3 0  9994",
        "tle_line2": "2 58662  97.4381 107.9912 0006222 227.2194 132.8525 15.31706292110193"
      },
      "geometry": {
        "type": "Point",
        "coordinates": [
          -51.41874719945113,
          69.43041678878846
        ]
      }
    },
    {
      "type": "Feature",
      "properties": {
        "norad_id": 58663,
        "name": "TIANMU-1 22",
        "group": "weather",
        "lat": -79.8976159359133,
        "lon": 153.03037812064403,
        "alt_km": 488.36825050894277,
        "timestamp": "2025-12-20T18:51:31.361311+00:00",
        "meta_object_name": "TIANMU-1 22",
        "meta_object_id": "2023-208D",
        "meta_epoch": "2025-12-20T14:30:22.694112",
        "meta_mean_motion": 15.27727007,
        "meta_eccentricity": 0.00027493,
        "meta_inclination": 97.4389,
        "meta_ra_of_asc_node": 105.6822,
        "meta_arg_of_pericenter": 245.3076,
        "meta_mean_anomaly": 114.7877,
        "meta_ephemeris_type": 0,
        "meta_classification_type": "U",
        "meta_norad_cat_id": 58663,
        "meta_element_set_no": 999,
        "meta_rev_at_epoch": 11003,
        "meta_bstar": 0.00022505685,
        "meta_mean_motion_dot": 6.022e-05,
        "meta_mean_motion_ddot": 0,
        "tle_line1": "1 58663U 23208D   25354.60442933  .00006022  00000+0  22506-3 0  9990",
        "tle_line2": "2 58663  97.4389 105.6822 0002749 245.3076 114.7877 15.27727007110031"
      },
      "geometry": {
        "type": "Point",
        "coordinates": [
          153.03037812064403,
          -79.8976159359133
        ]
      }
    },
    {
      "type": "Feature",
      "properties": {
        "norad_id": 58700,
        "name": "TIANMU-1 15",
        "group": "weather",
        "lat": -45.86206593664521,
        "lon": -176.01211125411436,
        "alt_km": 496.9022739072361,
        "timestamp": "2025-12-20T18:51:31.361321+00:00",
        "meta_object_name": "TIANMU-1 15",
        "meta_object_id": "2024-004A",
        "meta_epoch": "2025-12-20T14:20:09.015648",
        "meta_mean_motion": 15.24502073,
        "meta_eccentricity": 0.00059456,
        "meta_inclination": 97.4621,
        "meta_ra_of_asc_node": 176.0372,
        "meta_arg_of_pericenter": 256.7869,
        "meta_mean_anomaly": 103.2705,
        "meta_ephemeris_type": 0,
        "meta_classification_type": "U",
        "meta_norad_cat_id": 58700,
        "meta_element_set_no": 999,
        "meta_rev_at_epoch": 10854,
        "meta_bstar": 0.00019714118,
        "meta_mean_motion_dot": 4.776e-05,
        "meta_mean_motion_ddot": 0,
        "tle_line1": "1 58700U 24004A   25354.59732657  .00004776  00000+0  19714-3 0  9991",
        "tle_line2": "2 58700  97.4621 176.0372 0005945 256.7869 103.2705 15.24502073108548"
      },
      "geometry": {
        "type": "Point",
        "coordinates": [
          -176.01211125411436,
          -45.86206593664521
        ]
      }
    }
  ]
}